start=new Date('2022-09-30T00:00:00.000Z').valueOf();
sats=[{"TLE_LINE1":"1 51812U 22017AW  22272.20118590  .00000079  00000-0  23066-4 0  9997","GP_ID":"213806860","TLE_LINE2":"2 51812  53.2190 214.1984 0001582  59.3250 300.7898 15.08844788 34249","MEAN_ANOMALY":"300.7898","DECAY_DATE":null,"RCS_SIZE":"LARGE","MEAN_MOTION_DDOT":"0.0000000000000","OBJECT_NAME":"STARLINK-3610","ELEMENT_SET_NO":"999","MEAN_MOTION":"15.08844788","SITE":"AFWTR","PERIOD":"95.437","BSTAR":"0.00002306600000","OBJECT_ID":"2022-017AW","COUNTRY_CODE":"US","NORAD_CAT_ID":"51812","SEMIMAJOR_AXIS":"6917.866","INCLINATION":"53.2190","MEAN_ELEMENT_THEORY":"SGP4","ARG_OF_PERICENTER":"59.3250","ECCENTRICITY":"0.00015820","FILE":"3586894","EPOCH":"2022-09-29T04:49:42.461760","RA_OF_ASC_NODE":"214.1984","CLASSIFICATION_TYPE":"U","LAUNCH_DATE":"2022-02-25","OBJECT_TYPE":"PAYLOAD","TIME_SYSTEM":"UTC","EPHEMERIS_TYPE":"0","MEAN_MOTION_DOT":"0.00000079","REV_AT_EPOCH":"3424","CENTER_NAME":"EARTH","APOAPSIS":"540.825","PERIAPSIS":"538.636","REF_FRAME":"TEME"},{"RCS_SIZE":"LARGE","DECAY_DATE":null,"MEAN_ANOMALY":"307.4663","GP_ID":"213809698","TLE_LINE1":"1 51813U 22017AX  22272.84248095 -.00000127  00000-0  10117-4 0  9990","TLE_LINE2":"2 51813  53.2172 211.3269 0001556  52.6471 307.4663 15.08831684 34455","OBJECT_ID":"2022-017AX","BSTAR":"0.00001011700000","MEAN_MOTION":"15.08831684","SITE":"AFWTR","PERIOD":"95.438","MEAN_MOTION_DDOT":"0.0000000000000","OBJECT_NAME":"STARLINK-3552","ELEMENT_SET_NO":"999","FILE":"3586938","ECCENTRICITY":"0.00015560","ARG_OF_PERICENTER":"52.6471","MEAN_ELEMENT_THEORY":"SGP4","INCLINATION":"53.2172","SEMIMAJOR_AXIS":"6917.906","NORAD_CAT_ID":"51813","COUNTRY_CODE":"US","PERIAPSIS":"538.694","REF_FRAME":"TEME","CENTER_NAME":"EARTH","APOAPSIS":"540.847","EPHEMERIS_TYPE":"0","MEAN_MOTION_DOT":"-0.00000127","REV_AT_EPOCH":"3445","TIME_SYSTEM":"UTC","OBJECT_TYPE":"PAYLOAD","LAUNCH_DATE":"2022-02-25","EPOCH":"2022-09-29T20:13:10.354080","RA_OF_ASC_NODE":"211.3269","CLASSIFICATION_TYPE":"U"},{"FILE":"3586914","ARG_OF_PERICENTER":"55.0090","ECCENTRICITY":"0.00014040","SEMIMAJOR_AXIS":"6917.898","INCLINATION":"53.2192","MEAN_ELEMENT_THEORY":"SGP4","COUNTRY_CODE":"US","NORAD_CAT_ID":"51814","APOAPSIS":"540.734","CENTER_NAME":"EARTH","REF_FRAME":"TEME","PERIAPSIS":"538.791","TIME_SYSTEM":"UTC","REV_AT_EPOCH":"3437","MEAN_MOTION_DOT":"-0.00002362","EPHEMERIS_TYPE":"0","LAUNCH_DATE":"2022-02-25","OBJECT_TYPE":"PAYLOAD","CLASSIFICATION_TYPE":"U","EPOCH":"2022-09-29T06:14:30.441120","RA_OF_ASC_NODE":"213.9444","RCS_SIZE":"LARGE","DECAY_DATE":null,"MEAN_ANOMALY":"305.1034","TLE_LINE2":"2 51814  53.2192 213.9444 0001404  55.0090 305.1034 15.08834382 34373","TLE_LINE1":"1 51814U 22017AY  22272.26007455 -.00002362  00000-0 -13035-3 0  9995","GP_ID":"213809140","OBJECT_ID":"2022-017AY","BSTAR":"-0.00013035000000","ELEMENT_SET_NO":"999","MEAN_MOTION_DDOT":"0.0000000000000","OBJECT_NAME":"STARLINK-3599","PERIOD":"95.438","SITE":"AFWTR","MEAN_MOTION":"15.08834382"},{"PERIOD":"95.439","SITE":"AFWTR","MEAN_MOTION":"15.08813368","ELEMENT_SET_NO":"999","OBJECT_NAME":"STARLINK-3604","MEAN_MOTION_DDOT":"0.0000000000000","BSTAR":"-0.00020736000000","OBJECT_ID":"2022-017AZ","TLE_LINE2":"2 51815  53.2196 212.7418 0001481  86.4629 273.6533 15.08813368 34416","GP_ID":"213809630","TLE_LINE1":"1 51815U 22017AZ  22272.52873304 -.00003584  00000-0 -20736-3 0  9992","MEAN_ANOMALY":"273.6533","DECAY_DATE":null,"RCS_SIZE":"LARGE","RA_OF_ASC_NODE":"212.7418","EPOCH":"2022-09-29T12:41:22.534656","CLASSIFICATION_TYPE":"U","OBJECT_TYPE":"PAYLOAD","LAUNCH_DATE":"2022-02-25","REV_AT_EPOCH":"3441","MEAN_MOTION_DOT":"-0.00003584","EPHEMERIS_TYPE":"0","TIME_SYSTEM":"UTC","REF_FRAME":"TEME","PERIAPSIS":"538.802","APOAPSIS":"540.851","CENTER_NAME":"EARTH","NORAD_CAT_ID":"51815","COUNTRY_CODE":"US","MEAN_ELEMENT_THEORY":"SGP4","INCLINATION":"53.2196","SEMIMAJOR_AXIS":"6917.962","ECCENTRICITY":"0.00014810","ARG_OF_PERICENTER":"86.4629","FILE":"3586914"},{"OBJECT_TYPE":"PAYLOAD","LAUNCH_DATE":"2022-02-25","EPOCH":"2022-09-29T06:09:11.980224","CLASSIFICATION_TYPE":"U","RA_OF_ASC_NODE":"213.9615","REF_FRAME":"TEME","PERIAPSIS":"538.862","APOAPSIS":"540.637","CENTER_NAME":"EARTH","REV_AT_EPOCH":"3430","MEAN_MOTION_DOT":"-0.00001850","EPHEMERIS_TYPE":"0","TIME_SYSTEM":"UTC","MEAN_ELEMENT_THEORY":"SGP4","INCLINATION":"53.2187","SEMIMAJOR_AXIS":"6917.885","NORAD_CAT_ID":"51816","COUNTRY_CODE":"US","FILE":"3586894","ECCENTRICITY":"0.00012830","ARG_OF_PERICENTER":"80.6392","BSTAR":"-0.00009818300000","SITE":"AFWTR","PERIOD":"95.438","MEAN_MOTION":"15.08838609","ELEMENT_SET_NO":"999","MEAN_MOTION_DDOT":"0.0000000000000","OBJECT_NAME":"STARLINK-3603","OBJECT_ID":"2022-017BA","MEAN_ANOMALY":"279.4746","TLE_LINE2":"2 51816  53.2187 213.9615 0001283  80.6392 279.4746 15.08838609 34305","TLE_LINE1":"1 51816U 22017BA  22272.25638866 -.00001850  00000-0 -98183-4 0  9991","GP_ID":"213807360","RCS_SIZE":"LARGE","DECAY_DATE":null},{"TLE_LINE2":"2 51817  53.2051 145.8776 0008329 281.8740  78.1347 15.77328977 35352","TLE_LINE1":"1 51817U 22017BB  22272.76463456  .00060059  00000-0  35803-3 0  9992","GP_ID":"213836531","MEAN_ANOMALY":"78.1347","DECAY_DATE":null,"RCS_SIZE":"LARGE","SITE":"AFWTR","PERIOD":"91.294","MEAN_MOTION":"15.77328977","ELEMENT_SET_NO":"999","OBJECT_NAME":"STARLINK-3596","MEAN_MOTION_DDOT":"0.0000000000000","BSTAR":"0.00035803000000","OBJECT_ID":"2022-017BB","NORAD_CAT_ID":"51817","COUNTRY_CODE":"US","MEAN_ELEMENT_THEORY":"SGP4","SEMIMAJOR_AXIS":"6716.149","INCLINATION":"53.2051","ECCENTRICITY":"0.00083290","ARG_OF_PERICENTER":"281.8740","FILE":"3587117","CLASSIFICATION_TYPE":"U","RA_OF_ASC_NODE":"145.8776","EPOCH":"2022-09-29T18:21:04.425984","OBJECT_TYPE":"PAYLOAD","LAUNCH_DATE":"2022-02-25","MEAN_MOTION_DOT":"0.00060059","REV_AT_EPOCH":"3535","EPHEMERIS_TYPE":"0","TIME_SYSTEM":"UTC","REF_FRAME":"TEME","PERIAPSIS":"332.420","APOAPSIS":"343.608","CENTER_NAME":"EARTH"},{"ECCENTRICITY":"0.00017760","ARG_OF_PERICENTER":"50.9870","FILE":"3587117","NORAD_CAT_ID":"51852","COUNTRY_CODE":"US","MEAN_ELEMENT_THEORY":"SGP4","SEMIMAJOR_AXIS":"6917.926","INCLINATION":"53.2155","MEAN_MOTION_DOT":"-0.00000708","REV_AT_EPOCH":"3201","EPHEMERIS_TYPE":"0","TIME_SYSTEM":"UTC","REF_FRAME":"TEME","PERIAPSIS":"538.562","APOAPSIS":"541.019","CENTER_NAME":"EARTH","EPOCH":"2022-09-29T19:33:22.678848","RA_OF_ASC_NODE":"261.4480","CLASSIFICATION_TYPE":"U","OBJECT_TYPE":"PAYLOAD","LAUNCH_DATE":"2022-03-03","DECAY_DATE":null,"RCS_SIZE":"LARGE","TLE_LINE2":"2 51852  53.2155 261.4480 0001776  50.9870 309.1280 15.08825185 32011","TLE_LINE1":"1 51852U 22022A   22272.81484582 -.00000708  00000-0 -26390-4 0  9995","GP_ID":"213837536","MEAN_ANOMALY":"309.1280","OBJECT_ID":"2022-022A","SITE":"AFETR","PERIOD":"95.438","MEAN_MOTION":"15.08825185","ELEMENT_SET_NO":"999","OBJECT_NAME":"STARLINK-3542","MEAN_MOTION_DDOT":"0.0000000000000","BSTAR":"-0.00002639000000"},{"OBJECT_ID":"2022-022B","BSTAR":"0.00003804400000","MEAN_MOTION_DDOT":"0.0000000000000","OBJECT_NAME":"STARLINK-3539","ELEMENT_SET_NO":"999","MEAN_MOTION":"15.08829419","SITE":"AFETR","PERIOD":"95.438","RCS_SIZE":"MEDIUM","DECAY_DATE":null,"MEAN_ANOMALY":"299.7192","TLE_LINE1":"1 51853U 22022B   22272.35484598  .00000317  00000-0  38044-4 0  9995","GP_ID":"213807364","TLE_LINE2":"2 51853  53.2164 263.5182 0001415  60.3941 299.7192 15.08829419 33143","CENTER_NAME":"EARTH","APOAPSIS":"540.757","PERIAPSIS":"538.799","REF_FRAME":"TEME","TIME_SYSTEM":"UTC","EPHEMERIS_TYPE":"0","MEAN_MOTION_DOT":"0.00000317","REV_AT_EPOCH":"3314","LAUNCH_DATE":"2022-03-03","OBJECT_TYPE":"PAYLOAD","CLASSIFICATION_TYPE":"U","EPOCH":"2022-09-29T08:30:58.692672","RA_OF_ASC_NODE":"263.5182","FILE":"3586894","ARG_OF_PERICENTER":"60.3941","ECCENTRICITY":"0.00014150","SEMIMAJOR_AXIS":"6917.913","INCLINATION":"53.2164","MEAN_ELEMENT_THEORY":"SGP4","COUNTRY_CODE":"US","NORAD_CAT_ID":"51853"},{"RCS_SIZE":"LARGE","DECAY_DATE":null,"MEAN_ANOMALY":"317.2120","TLE_LINE1":"1 51854U 22022C   22272.81115845  .00000597  00000-0  55629-4 0  9991","GP_ID":"213836535","TLE_LINE2":"2 51854  53.2164 261.4624 0001866  42.9017 317.2120 15.08833911 33275","OBJECT_ID":"2022-022C","BSTAR":"0.00005562900000","OBJECT_NAME":"STARLINK-3541","MEAN_MOTION_DDOT":"0.0000000000000","ELEMENT_SET_NO":"999","MEAN_MOTION":"15.08833911","SITE":"AFETR","PERIOD":"95.438","FILE":"3587117","ARG_OF_PERICENTER":"42.9017","ECCENTRICITY":"0.00018660","INCLINATION":"53.2164","SEMIMAJOR_AXIS":"6917.899","MEAN_ELEMENT_THEORY":"SGP4","COUNTRY_CODE":"US","NORAD_CAT_ID":"51854","CENTER_NAME":"EARTH","APOAPSIS":"541.055","PERIAPSIS":"538.473","REF_FRAME":"TEME","TIME_SYSTEM":"UTC","EPHEMERIS_TYPE":"0","MEAN_MOTION_DOT":"0.00000597","REV_AT_EPOCH":"3327","LAUNCH_DATE":"2022-03-03","OBJECT_TYPE":"PAYLOAD","CLASSIFICATION_TYPE":"U","RA_OF_ASC_NODE":"261.4624","EPOCH":"2022-09-29T19:28:04.090080"},{"TLE_LINE2":"2 51855  53.2177 263.2827 0001804  52.2286 307.8869 15.08823845 33167","TLE_LINE1":"1 51855U 22022D   22272.40637127 -.00000772  00000-0 -30448-4 0  9998","GP_ID":"213806363","MEAN_ANOMALY":"307.8869","DECAY_DATE":null,"RCS_SIZE":"LARGE","SITE":"AFETR","PERIOD":"95.439","MEAN_MOTION":"15.08823845","ELEMENT_SET_NO":"999","OBJECT_NAME":"STARLINK-3545","MEAN_MOTION_DDOT":"0.0000000000000","BSTAR":"-0.00003044800000","OBJECT_ID":"2022-022D","NORAD_CAT_ID":"51855","COUNTRY_CODE":"US","MEAN_ELEMENT_THEORY":"SGP4","SEMIMAJOR_AXIS":"6917.930","INCLINATION":"53.2177","ECCENTRICITY":"0.00018040","ARG_OF_PERICENTER":"52.2286","FILE":"3586894","EPOCH":"2022-09-29T09:45:10.477728","RA_OF_ASC_NODE":"263.2827","CLASSIFICATION_TYPE":"U","OBJECT_TYPE":"PAYLOAD","LAUNCH_DATE":"2022-03-03","MEAN_MOTION_DOT":"-0.00000772","REV_AT_EPOCH":"3316","EPHEMERIS_TYPE":"0","TIME_SYSTEM":"UTC","REF_FRAME":"TEME","PERIAPSIS":"538.547","APOAPSIS":"541.043","CENTER_NAME":"EARTH"}];
